SL-16 R/B               
1 24298U 96051B   25320.49686538  .00000005  00000+0  29629-4 0  9993
2 24298  70.7607  54.8293 0018356 294.2653  65.6549 14.12393603505668
ORBVIEW 2 (SEASTAR)     
1 24883U 97037A   25320.42682131  .00000715  00000+0  26523-3 0  9993
2 24883  98.8449 116.8413 0002875  51.9064 308.2380 14.35389410492221
SL-16 R/B               
1 25400U 98043G   25320.48658286  .00000199  00000+0  10242-3 0  9994
2 25400  98.8080 268.1636 0009645 349.3391  10.7582 14.26016464422852
SL-16 R/B               
1 25407U 98045B   25320.48885487 -.00000139  00000+0 -46044-4 0  9994
2 25407  71.0122  59.6296 0008504 213.7500 146.3083 14.16168832411073
ISS (ZARYA)             
1 25544U 98067A   25320.35281829  .00017169  00000+0  31117-3 0  9999
2 25544  51.6328 273.0879 0004159  76.5981 283.5471 15.49717811538761
CZ-4B R/B               
1 25732U 99025C   25320.15331931  .00000186  00000+0  11104-3 0  9996
2 25732  98.6810   2.0228 0036263 312.5742 115.5564 14.18234181372070
OKEAN-O                 
1 25860U 99039A   25320.42447590  .00001466  00000+0  20020-3 0  9991
2 25860  97.9643  16.3495 0001334  67.3562 292.7791 14.80098665417634
SL-16 R/B               
1 25861U 99039B   25320.17477435  .00001267  00000+0  16817-3 0  9993
2 25861  98.0167  14.3195 0013499 265.4734  94.4936 14.81532163420055
DELTA 2 R/B             
1 25876U 99041E   25320.44116109  .00001577  00000+0  29297-3 0  9990
2 25876  51.7632  33.4174 0504888  14.2715 347.1897 14.11309819347032
HELIOS 1B               
1 25977U 99064A   25320.42921473  .00002986  00000+0  33882-3 0  9993
2 25977  98.1756 214.3174 0002560  78.5347 281.6156 14.87131833668421
TERRA                   
1 25994U 99068A   25320.51779586  .00001045  00000+0  22269-3 0  9994
2 25994  97.9788  13.1588 0002621 152.5754 350.7536 14.60910165378555
SL-16 R/B               
1 26070U 00006B   25320.47493355 -.00000151  00000+0 -52544-4 0  9995
2 26070  71.0027 335.8845 0017082 345.4245  14.6383 14.15801981332534
