CCSDS_OMM_VERS = 2.0
CREATION_DATE  = 
ORIGINATOR     = 

OBJECT_NAME    = SL-16 R/B
OBJECT_ID      = 1996-051B
CENTER_NAME    = EARTH
REF_FRAME      = TEME
TIME_SYSTEM    = UTC
MEAN_ELEMENT_THEORY = SGP/SGP4

EPOCH          = 2025-11-16T11:55:29.168832
MEAN_MOTION    = 14.12393603
ECCENTRICITY   = .0018356
INCLINATION    = 70.7607
RA_OF_ASC_NODE = 54.8293
ARG_OF_PERICENTER = 294.2653
MEAN_ANOMALY   = 65.6549

EPHEMERIS_TYPE = 0
CLASSIFICATION_TYPE = U
NORAD_CAT_ID   = 24298
ELEMENT_SET_NO = 999
REV_AT_EPOCH   = 50566
BSTAR          = .29629E-4
MEAN_MOTION_DOT = .5E-7
MEAN_MOTION_DDOT = 0

CCSDS_OMM_VERS = 2.0
CREATION_DATE  = 
ORIGINATOR     = 

OBJECT_NAME    = ORBVIEW 2 (SEASTAR)
OBJECT_ID      = 1997-037A
CENTER_NAME    = EARTH
REF_FRAME      = TEME
TIME_SYSTEM    = UTC
MEAN_ELEMENT_THEORY = SGP/SGP4

EPOCH          = 2025-11-16T10:14:37.361184
MEAN_MOTION    = 14.35389410
ECCENTRICITY   = .0002875
INCLINATION    = 98.8449
RA_OF_ASC_NODE = 116.8413
ARG_OF_PERICENTER = 51.9064
MEAN_ANOMALY   = 308.2380

EPHEMERIS_TYPE = 0
CLASSIFICATION_TYPE = U
NORAD_CAT_ID   = 24883
ELEMENT_SET_NO = 999
REV_AT_EPOCH   = 49222
BSTAR          = .26523E-3
MEAN_MOTION_DOT = .715E-5
MEAN_MOTION_DDOT = 0

CCSDS_OMM_VERS = 2.0
CREATION_DATE  = 
ORIGINATOR     = 

OBJECT_NAME    = SL-16 R/B
OBJECT_ID      = 1998-043G
CENTER_NAME    = EARTH
REF_FRAME      = TEME
TIME_SYSTEM    = UTC
MEAN_ELEMENT_THEORY = SGP/SGP4

EPOCH          = 2025-11-16T11:40:40.759104
MEAN_MOTION    = 14.26016464
ECCENTRICITY   = .0009645
INCLINATION    = 98.8080
RA_OF_ASC_NODE = 268.1636
ARG_OF_PERICENTER = 349.3391
MEAN_ANOMALY   = 10.7582

EPHEMERIS_TYPE = 0
CLASSIFICATION_TYPE = U
NORAD_CAT_ID   = 25400
ELEMENT_SET_NO = 999
REV_AT_EPOCH   = 42285
BSTAR          = .10242E-3
MEAN_MOTION_DOT = .199E-5
MEAN_MOTION_DDOT = 0

CCSDS_OMM_VERS = 2.0
CREATION_DATE  = 
ORIGINATOR     = 

OBJECT_NAME    = SL-16 R/B
OBJECT_ID      = 1998-045B
CENTER_NAME    = EARTH
REF_FRAME      = TEME
TIME_SYSTEM    = UTC
MEAN_ELEMENT_THEORY = SGP/SGP4

EPOCH          = 2025-11-16T11:43:57.060768
MEAN_MOTION    = 14.16168832
ECCENTRICITY   = .0008504
INCLINATION    = 71.0122
RA_OF_ASC_NODE = 59.6296
ARG_OF_PERICENTER = 213.7500
MEAN_ANOMALY   = 146.3083

EPHEMERIS_TYPE = 0
CLASSIFICATION_TYPE = U
NORAD_CAT_ID   = 25407
ELEMENT_SET_NO = 999
REV_AT_EPOCH   = 41107
BSTAR          = -.46044E-4
MEAN_MOTION_DOT = -.139E-5
MEAN_MOTION_DDOT = 0

CCSDS_OMM_VERS = 2.0
CREATION_DATE  = 
ORIGINATOR     = 

OBJECT_NAME    = ISS (ZARYA)
OBJECT_ID      = 1998-067A
CENTER_NAME    = EARTH
REF_FRAME      = TEME
TIME_SYSTEM    = UTC
MEAN_ELEMENT_THEORY = SGP/SGP4

EPOCH          = 2025-11-16T08:28:03.500256
MEAN_MOTION    = 15.49717811
ECCENTRICITY   = .0004159
INCLINATION    = 51.6328
RA_OF_ASC_NODE = 273.0879
ARG_OF_PERICENTER = 76.5981
MEAN_ANOMALY   = 283.5471

EPHEMERIS_TYPE = 0
CLASSIFICATION_TYPE = U
NORAD_CAT_ID   = 25544
ELEMENT_SET_NO = 999
REV_AT_EPOCH   = 53876
BSTAR          = .31117E-3
MEAN_MOTION_DOT = .17169E-3
MEAN_MOTION_DDOT = 0

CCSDS_OMM_VERS = 2.0
CREATION_DATE  = 
ORIGINATOR     = 

OBJECT_NAME    = CZ-4B R/B
OBJECT_ID      = 1999-025C
CENTER_NAME    = EARTH
REF_FRAME      = TEME
TIME_SYSTEM    = UTC
MEAN_ELEMENT_THEORY = SGP/SGP4

EPOCH          = 2025-11-16T03:40:46.788384
MEAN_MOTION    = 14.18234181
ECCENTRICITY   = .0036263
INCLINATION    = 98.6810
RA_OF_ASC_NODE = 2.0228
ARG_OF_PERICENTER = 312.5742
MEAN_ANOMALY   = 115.5564

EPHEMERIS_TYPE = 0
CLASSIFICATION_TYPE = U
NORAD_CAT_ID   = 25732
ELEMENT_SET_NO = 999
REV_AT_EPOCH   = 37207
BSTAR          = .11104E-3
MEAN_MOTION_DOT = .186E-5
MEAN_MOTION_DDOT = 0

CCSDS_OMM_VERS = 2.0
CREATION_DATE  = 
ORIGINATOR     = 

OBJECT_NAME    = OKEAN-O
OBJECT_ID      = 1999-039A
CENTER_NAME    = EARTH
REF_FRAME      = TEME
TIME_SYSTEM    = UTC
MEAN_ELEMENT_THEORY = SGP/SGP4

EPOCH          = 2025-11-16T10:11:14.717760
MEAN_MOTION    = 14.80098665
ECCENTRICITY   = .0001334
INCLINATION    = 97.9643
RA_OF_ASC_NODE = 16.3495
ARG_OF_PERICENTER = 67.3562
MEAN_ANOMALY   = 292.7791

EPHEMERIS_TYPE = 0
CLASSIFICATION_TYPE = U
NORAD_CAT_ID   = 25860
ELEMENT_SET_NO = 999
REV_AT_EPOCH   = 41763
BSTAR          = .2002E-3
MEAN_MOTION_DOT = .1466E-4
MEAN_MOTION_DDOT = 0

CCSDS_OMM_VERS = 2.0
CREATION_DATE  = 
ORIGINATOR     = 

OBJECT_NAME    = SL-16 R/B
OBJECT_ID      = 1999-039B
CENTER_NAME    = EARTH
REF_FRAME      = TEME
TIME_SYSTEM    = UTC
MEAN_ELEMENT_THEORY = SGP/SGP4

EPOCH          = 2025-11-16T04:11:40.503840
MEAN_MOTION    = 14.81532163
ECCENTRICITY   = .0013499
INCLINATION    = 98.0167
RA_OF_ASC_NODE = 14.3195
ARG_OF_PERICENTER = 265.4734
MEAN_ANOMALY   = 94.4936

EPHEMERIS_TYPE = 0
CLASSIFICATION_TYPE = U
NORAD_CAT_ID   = 25861
ELEMENT_SET_NO = 999
REV_AT_EPOCH   = 42005
BSTAR          = .16817E-3
MEAN_MOTION_DOT = .1267E-4
MEAN_MOTION_DDOT = 0

CCSDS_OMM_VERS = 2.0
CREATION_DATE  = 
ORIGINATOR     = 

OBJECT_NAME    = DELTA 2 R/B
OBJECT_ID      = 1999-041E
CENTER_NAME    = EARTH
REF_FRAME      = TEME
TIME_SYSTEM    = UTC
MEAN_ELEMENT_THEORY = SGP/SGP4

EPOCH          = 2025-11-16T10:35:16.318176
MEAN_MOTION    = 14.11309819
ECCENTRICITY   = .0504888
INCLINATION    = 51.7632
RA_OF_ASC_NODE = 33.4174
ARG_OF_PERICENTER = 14.2715
MEAN_ANOMALY   = 347.1897

EPHEMERIS_TYPE = 0
CLASSIFICATION_TYPE = U
NORAD_CAT_ID   = 25876
ELEMENT_SET_NO = 999
REV_AT_EPOCH   = 34703
BSTAR          = .29297E-3
MEAN_MOTION_DOT = .1577E-4
MEAN_MOTION_DDOT = 0

CCSDS_OMM_VERS = 2.0
CREATION_DATE  = 
ORIGINATOR     = 

OBJECT_NAME    = HELIOS 1B
OBJECT_ID      = 1999-064A
CENTER_NAME    = EARTH
REF_FRAME      = TEME
TIME_SYSTEM    = UTC
MEAN_ELEMENT_THEORY = SGP/SGP4

EPOCH          = 2025-11-16T10:18:04.152672
MEAN_MOTION    = 14.87131833
ECCENTRICITY   = .000256
INCLINATION    = 98.1756
RA_OF_ASC_NODE = 214.3174
ARG_OF_PERICENTER = 78.5347
MEAN_ANOMALY   = 281.6156

EPHEMERIS_TYPE = 0
CLASSIFICATION_TYPE = U
NORAD_CAT_ID   = 25977
ELEMENT_SET_NO = 999
REV_AT_EPOCH   = 66842
BSTAR          = .33882E-3
MEAN_MOTION_DOT = .2986E-4
MEAN_MOTION_DDOT = 0

CCSDS_OMM_VERS = 2.0
CREATION_DATE  = 
ORIGINATOR     = 

OBJECT_NAME    = TERRA
OBJECT_ID      = 1999-068A
CENTER_NAME    = EARTH
REF_FRAME      = TEME
TIME_SYSTEM    = UTC
MEAN_ELEMENT_THEORY = SGP/SGP4

EPOCH          = 2025-11-16T12:25:37.562304
MEAN_MOTION    = 14.60910165
ECCENTRICITY   = .0002621
INCLINATION    = 97.9788
RA_OF_ASC_NODE = 13.1588
ARG_OF_PERICENTER = 152.5754
MEAN_ANOMALY   = 350.7536

EPHEMERIS_TYPE = 0
CLASSIFICATION_TYPE = U
NORAD_CAT_ID   = 25994
ELEMENT_SET_NO = 999
REV_AT_EPOCH   = 37855
BSTAR          = .22269E-3
MEAN_MOTION_DOT = .1045E-4
MEAN_MOTION_DDOT = 0

CCSDS_OMM_VERS = 2.0
CREATION_DATE  = 
ORIGINATOR     = 

OBJECT_NAME    = SL-16 R/B
OBJECT_ID      = 2000-006B
CENTER_NAME    = EARTH
REF_FRAME      = TEME
TIME_SYSTEM    = UTC
MEAN_ELEMENT_THEORY = SGP/SGP4

EPOCH          = 2025-11-16T11:23:54.258720
MEAN_MOTION    = 14.15801981
ECCENTRICITY   = .0017082
INCLINATION    = 71.0027
RA_OF_ASC_NODE = 335.8845
ARG_OF_PERICENTER = 345.4245
MEAN_ANOMALY   = 14.6383

EPHEMERIS_TYPE = 0
CLASSIFICATION_TYPE = U
NORAD_CAT_ID   = 26070
ELEMENT_SET_NO = 999
REV_AT_EPOCH   = 33253
BSTAR          = -.52544E-4
MEAN_MOTION_DOT = -.151E-5
MEAN_MOTION_DDOT = 0

